start=new Date('2022-09-21T00:00:00.000Z').valueOf();
sats=[{"CENTER_NAME":"EARTH","TLE_LINE1":"1 52987U 22076B   22263.91668981 -.00050703  00000-0 -31890-2 0  9991","OBJECT_ID":"2022-076B","ARG_OF_PERICENTER":"40.0028","OBJECT_NAME":"STARLINK-4259","REF_FRAME":"TEME","SITE":"AFETR","PERIAPSIS":"538.466","GP_ID":"213125916","PERIOD":"95.437","MEAN_ELEMENT_THEORY":"SGP4","SEMIMAJOR_AXIS":"6917.841","COUNTRY_CODE":"US","ECCENTRICITY":"0.00017920","MEAN_MOTION_DOT":"-0.00050703","BSTAR":"-0.00318900000000","TLE_LINE2":"2 52987  53.2180  26.4042 0001792  40.0028  33.2200 15.08852913  1309","CLASSIFICATION_TYPE":"U","RA_OF_ASC_NODE":"26.4042","OBJECT_TYPE":"PAYLOAD","NORAD_CAT_ID":"52987","MEAN_ANOMALY":"33.2200","DECAY_DATE":null,"REV_AT_EPOCH":"130","EPHEMERIS_TYPE":"0","LAUNCH_DATE":"2022-07-07","RCS_SIZE":"LARGE","APOAPSIS":"540.946","MEAN_MOTION_DDOT":"0.0000000000000","EPOCH":"2022-09-20T22:00:01.999584","TIME_SYSTEM":"UTC","INCLINATION":"53.2180","MEAN_MOTION":"15.08852913","FILE":"3578945","ELEMENT_SET_NO":"999"},{"INCLINATION":"53.2178","ELEMENT_SET_NO":"999","FILE":"3578945","MEAN_MOTION":"15.08867543","RCS_SIZE":"LARGE","APOAPSIS":"540.997","TIME_SYSTEM":"UTC","MEAN_MOTION_DDOT":"0.0000000000000","EPOCH":"2022-09-20T22:00:01.999584","EPHEMERIS_TYPE":"0","LAUNCH_DATE":"2022-07-07","REV_AT_EPOCH":"130","TLE_LINE2":"2 52988  53.2178  16.4048 0001931  39.3871 268.7653 15.08867543  1306","BSTAR":"-0.00403240000000","DECAY_DATE":null,"MEAN_ANOMALY":"268.7653","OBJECT_TYPE":"PAYLOAD","NORAD_CAT_ID":"52988","RA_OF_ASC_NODE":"16.4048","CLASSIFICATION_TYPE":"U","MEAN_ELEMENT_THEORY":"SGP4","SEMIMAJOR_AXIS":"6917.796","PERIOD":"95.436","MEAN_MOTION_DOT":"-0.00063944","ECCENTRICITY":"0.00019310","COUNTRY_CODE":"US","PERIAPSIS":"538.325","GP_ID":"213126075","SITE":"AFETR","ARG_OF_PERICENTER":"39.3871","OBJECT_NAME":"STARLINK-4291","TLE_LINE1":"1 52988U 22076C   22263.91668981 -.00063944  00000-0 -40324-2 0  9995","OBJECT_ID":"2022-076C","CENTER_NAME":"EARTH","REF_FRAME":"TEME"},{"PERIAPSIS":"538.306","GP_ID":"213126614","MEAN_ELEMENT_THEORY":"SGP4","SEMIMAJOR_AXIS":"6917.874","PERIOD":"95.437","ECCENTRICITY":"0.00020710","COUNTRY_CODE":"US","MEAN_MOTION_DOT":"-0.00000270","CENTER_NAME":"EARTH","ARG_OF_PERICENTER":"35.2746","OBJECT_NAME":"STARLINK-4293","OBJECT_ID":"2022-076D","TLE_LINE1":"1 52989U 22076D   22263.91668981 -.00000270  00000-0  11251-5 0  9998","REF_FRAME":"TEME","SITE":"AFETR","RCS_SIZE":"LARGE","APOAPSIS":"541.171","MEAN_MOTION_DDOT":"0.0000000000000","EPOCH":"2022-09-20T22:00:01.999584","TIME_SYSTEM":"UTC","INCLINATION":"53.2187","FILE":"3578945","MEAN_MOTION":"15.08842170","ELEMENT_SET_NO":"999","BSTAR":"0.00000112510000","TLE_LINE2":"2 52989  53.2187  26.4011 0002071  35.2746  57.8696 15.08842170  1303","OBJECT_TYPE":"PAYLOAD","RA_OF_ASC_NODE":"26.4011","NORAD_CAT_ID":"52989","CLASSIFICATION_TYPE":"U","DECAY_DATE":null,"MEAN_ANOMALY":"57.8696","EPHEMERIS_TYPE":"0","LAUNCH_DATE":"2022-07-07","REV_AT_EPOCH":"130"},{"REF_FRAME":"TEME","CENTER_NAME":"EARTH","OBJECT_ID":"2022-076E","TLE_LINE1":"1 52990U 22076E   22263.91668981 -.00042653  00000-0 -26767-2 0  9997","OBJECT_NAME":"STARLINK-4286","ARG_OF_PERICENTER":"39.4054","SITE":"AFETR","GP_ID":"213126233","PERIAPSIS":"538.360","COUNTRY_CODE":"US","ECCENTRICITY":"0.00019420","MEAN_MOTION_DOT":"-0.00042653","PERIOD":"95.437","SEMIMAJOR_AXIS":"6917.839","MEAN_ELEMENT_THEORY":"SGP4","CLASSIFICATION_TYPE":"U","RA_OF_ASC_NODE":"26.3980","OBJECT_TYPE":"PAYLOAD","NORAD_CAT_ID":"52990","MEAN_ANOMALY":"73.7749","DECAY_DATE":null,"BSTAR":"-0.00267670000000","TLE_LINE2":"2 52990  53.2195  26.3980 0001942  39.4054  73.7749 15.08853700  1309","REV_AT_EPOCH":"130","EPHEMERIS_TYPE":"0","LAUNCH_DATE":"2022-07-07","RCS_SIZE":"LARGE","EPOCH":"2022-09-20T22:00:01.999584","APOAPSIS":"541.047","MEAN_MOTION_DDOT":"0.0000000000000","TIME_SYSTEM":"UTC","MEAN_MOTION":"15.08853700","FILE":"3578945","ELEMENT_SET_NO":"999","INCLINATION":"53.2195"},{"PERIOD":"95.438","SEMIMAJOR_AXIS":"6917.898","MEAN_ELEMENT_THEORY":"SGP4","COUNTRY_CODE":"US","ECCENTRICITY":"0.00018580","MEAN_MOTION_DOT":"0.00001754","PERIAPSIS":"538.477","GP_ID":"213125501","SITE":"AFETR","CENTER_NAME":"EARTH","TLE_LINE1":"1 52991U 22076F   22263.91668981  .00001754  00000-0  12827-3 0  9996","OBJECT_ID":"2022-076F","OBJECT_NAME":"STARLINK-4285","ARG_OF_PERICENTER":"41.1962","REF_FRAME":"TEME","INCLINATION":"53.2202","MEAN_MOTION":"15.08834377","FILE":"3578945","ELEMENT_SET_NO":"999","APOAPSIS":"541.048","RCS_SIZE":"LARGE","EPOCH":"2022-09-20T22:00:01.999584","MEAN_MOTION_DDOT":"0.0000000000000","TIME_SYSTEM":"UTC","REV_AT_EPOCH":"130","EPHEMERIS_TYPE":"0","LAUNCH_DATE":"2022-07-07","BSTAR":"0.00012827000000","TLE_LINE2":"2 52991  53.2202  26.3963 0001858  41.1962  91.9961 15.08834377  1301","CLASSIFICATION_TYPE":"U","OBJECT_TYPE":"PAYLOAD","RA_OF_ASC_NODE":"26.3963","NORAD_CAT_ID":"52991","MEAN_ANOMALY":"91.9961","DECAY_DATE":null},{"MEAN_MOTION_DOT":"-0.00015626","ECCENTRICITY":"0.00020230","COUNTRY_CODE":"US","SEMIMAJOR_AXIS":"6917.832","MEAN_ELEMENT_THEORY":"SGP4","PERIOD":"95.437","GP_ID":"213125661","PERIAPSIS":"538.298","SITE":"AFETR","REF_FRAME":"TEME","ARG_OF_PERICENTER":"40.0606","OBJECT_NAME":"STARLINK-4269","OBJECT_ID":"2022-076G","TLE_LINE1":"1 52992U 22076G   22263.91668981 -.00015626  00000-0 -96534-3 0  9999","CENTER_NAME":"EARTH","ELEMENT_SET_NO":"999","FILE":"3578945","MEAN_MOTION":"15.08855765","INCLINATION":"53.2200","EPOCH":"2022-09-20T22:00:01.999584","RCS_SIZE":"MEDIUM","APOAPSIS":"541.097","MEAN_MOTION_DDOT":"0.0000000000000","TIME_SYSTEM":"UTC","LAUNCH_DATE":"2022-07-07","EPHEMERIS_TYPE":"0","REV_AT_EPOCH":"130","DECAY_DATE":null,"MEAN_ANOMALY":"113.1069","NORAD_CAT_ID":"52992","OBJECT_TYPE":"PAYLOAD","RA_OF_ASC_NODE":"26.3963","CLASSIFICATION_TYPE":"U","TLE_LINE2":"2 52992  53.2200  26.3963 0002023  40.0606 113.1069 15.08855765  1308","BSTAR":"-0.00096534000000"},{"REV_AT_EPOCH":"130","EPHEMERIS_TYPE":"0","LAUNCH_DATE":"2022-07-07","BSTAR":"-0.00312360000000","TLE_LINE2":"2 52993  53.2181  16.4026 0002067  41.0487 287.1170 15.08854619  1305","CLASSIFICATION_TYPE":"U","OBJECT_TYPE":"PAYLOAD","NORAD_CAT_ID":"52993","RA_OF_ASC_NODE":"16.4026","MEAN_ANOMALY":"287.1170","DECAY_DATE":null,"INCLINATION":"53.2181","MEAN_MOTION":"15.08854619","FILE":"3578945","ELEMENT_SET_NO":"999","APOAPSIS":"541.131","RCS_SIZE":"LARGE","TIME_SYSTEM":"UTC","MEAN_MOTION_DDOT":"0.0000000000000","EPOCH":"2022-09-20T22:00:01.999584","SITE":"AFETR","CENTER_NAME":"EARTH","OBJECT_ID":"2022-076H","TLE_LINE1":"1 52993U 22076H   22263.91668981 -.00049679  00000-0 -31236-2 0  9992","OBJECT_NAME":"STARLINK-4264","ARG_OF_PERICENTER":"41.0487","REF_FRAME":"TEME","PERIOD":"95.437","MEAN_ELEMENT_THEORY":"SGP4","SEMIMAJOR_AXIS":"6917.836","COUNTRY_CODE":"US","ECCENTRICITY":"0.00020670","MEAN_MOTION_DOT":"-0.00049679","PERIAPSIS":"538.271","GP_ID":"213126393"},{"SITE":"AFETR","REF_FRAME":"TEME","CENTER_NAME":"EARTH","TLE_LINE1":"1 52994U 22076J   22263.91668981 -.00042797  00000-0 -26858-2 0  9991","OBJECT_ID":"2022-076J","ARG_OF_PERICENTER":"36.8826","OBJECT_NAME":"STARLINK-4256","COUNTRY_CODE":"US","ECCENTRICITY":"0.00018320","MEAN_MOTION_DOT":"-0.00042797","PERIOD":"95.437","SEMIMAJOR_AXIS":"6917.834","MEAN_ELEMENT_THEORY":"SGP4","GP_ID":"213125820","PERIAPSIS":"538.432","REV_AT_EPOCH":"130","EPHEMERIS_TYPE":"0","LAUNCH_DATE":"2022-07-07","CLASSIFICATION_TYPE":"U","OBJECT_TYPE":"PAYLOAD","RA_OF_ASC_NODE":"16.4029","NORAD_CAT_ID":"52994","MEAN_ANOMALY":"311.3007","DECAY_DATE":null,"BSTAR":"-0.00268580000000","TLE_LINE2":"2 52994  53.2190  16.4029 0001832  36.8826 311.3007 15.08855220  1305","MEAN_MOTION":"15.08855220","FILE":"3578945","ELEMENT_SET_NO":"999","INCLINATION":"53.2190","EPOCH":"2022-09-20T22:00:01.999584","RCS_SIZE":"LARGE","APOAPSIS":"540.966","MEAN_MOTION_DDOT":"0.0000000000000","TIME_SYSTEM":"UTC"},{"CENTER_NAME":"EARTH","OBJECT_NAME":"STARLINK-4296","ARG_OF_PERICENTER":"32.5139","TLE_LINE1":"1 52995U 22076K   22263.91668981 -.00051430  00000-0 -32351-2 0  9991","OBJECT_ID":"2022-076K","REF_FRAME":"TEME","SITE":"AFETR","PERIAPSIS":"538.233","GP_ID":"213125917","MEAN_ELEMENT_THEORY":"SGP4","SEMIMAJOR_AXIS":"6917.835","PERIOD":"95.437","ECCENTRICITY":"0.00021200","COUNTRY_CODE":"US","MEAN_MOTION_DOT":"-0.00051430","BSTAR":"-0.00323510000000","TLE_LINE2":"2 52995  53.2161  16.3993 0002120  32.5139 355.6710 15.08854915  1306","RA_OF_ASC_NODE":"16.3993","OBJECT_TYPE":"PAYLOAD","NORAD_CAT_ID":"52995","CLASSIFICATION_TYPE":"U","DECAY_DATE":null,"MEAN_ANOMALY":"355.6710","LAUNCH_DATE":"2022-07-07","EPHEMERIS_TYPE":"0","REV_AT_EPOCH":"130","RCS_SIZE":"LARGE","EPOCH":"2022-09-20T22:00:01.999584","APOAPSIS":"541.166","MEAN_MOTION_DDOT":"0.0000000000000","TIME_SYSTEM":"UTC","INCLINATION":"53.2161","FILE":"3578945","MEAN_MOTION":"15.08854915","ELEMENT_SET_NO":"999"},{"TLE_LINE2":"2 52996  53.2190  16.4007 0001918  35.7876 332.4015 15.08857569  1302","BSTAR":"-0.00323200000000","MEAN_ANOMALY":"332.4015","DECAY_DATE":null,"CLASSIFICATION_TYPE":"U","NORAD_CAT_ID":"52996","OBJECT_TYPE":"PAYLOAD","RA_OF_ASC_NODE":"16.4007","REV_AT_EPOCH":"130","EPHEMERIS_TYPE":"0","LAUNCH_DATE":"2022-07-07","RCS_SIZE":"LARGE","APOAPSIS":"541.019","MEAN_MOTION_DDOT":"0.0000000000000","EPOCH":"2022-09-20T22:00:01.999584","TIME_SYSTEM":"UTC","INCLINATION":"53.2190","ELEMENT_SET_NO":"999","MEAN_MOTION":"15.08857569","FILE":"3578945","TLE_LINE1":"1 52996U 22076L   22263.91668981 -.00051384  00000-0 -32320-2 0  9996","OBJECT_ID":"2022-076L","OBJECT_NAME":"STARLINK-4295","ARG_OF_PERICENTER":"35.7876","CENTER_NAME":"EARTH","REF_FRAME":"TEME","SITE":"AFETR","PERIAPSIS":"538.365","GP_ID":"213126076","PERIOD":"95.436","MEAN_ELEMENT_THEORY":"SGP4","SEMIMAJOR_AXIS":"6917.827","MEAN_MOTION_DOT":"-0.00051384","COUNTRY_CODE":"US","ECCENTRICITY":"0.00019180"}];
